[{"OBJECT_NAME":"STARLINK-3399","OBJECT_ID":"2022-005T","EPOCH":"2026-03-09T20:51:46.344096","MEAN_MOTION":15.08839443,"ECCENTRICITY":0.00014382,"INCLINATION":53.2172,"RA_OF_ASC_NODE":288.3271,"ARG_OF_PERICENTER":86.3831,"MEAN_ANOMALY":273.7326,"EPHEMERIS_TYPE":0,"CLASSIFICATION_TYPE":"U","NORAD_CAT_ID":51121,"ELEMENT_SET_NO":999,"REV_AT_EPOCH":22890,"BSTAR":3.839666e-6,"MEAN_MOTION_DOT":-2.27e-6,"MEAN_MOTION_DDOT":0},{"OBJECT_NAME":"ELECTRON KICK STAGE R\/B","OBJECT_ID":"2023-035A","EPOCH":"2026-03-09T00:22:03.988416","MEAN_MOTION":15.09409521,"ECCENTRICITY":0.00017263,"INCLINATION":44.1756,"RA_OF_ASC_NODE":311.3301,"ARG_OF_PERICENTER":9.8979,"MEAN_ANOMALY":350.1918,"EPHEMERIS_TYPE":0,"CLASSIFICATION_TYPE":"U","NORAD_CAT_ID":55908,"ELEMENT_SET_NO":999,"REV_AT_EPOCH":16322,"BSTAR":0.00066616987,"MEAN_MOTION_DOT":0.00010608,"MEAN_MOTION_DDOT":0}]
